*******************************************************************************
JPL/HORIZONS             3411 Debetencourt (1980 LK)       2023-Sep-04 11:23:26
Rec #:    3411 (+COV) Soln.date: 2023-Aug-23_10:06:23   # obs: 5155 (1954-2023)
 
IAU76/J2000 helio. ecliptic osc. elements (au, days, deg., period=Julian yrs):
 
  EPOCH=  2457894.5 ! 2017-May-21.00 (TDB)         Residual RMS= .24212
   EC= .1180644099759344   QR= 1.9781409629952     TP= 2457519.5885380907
   OM= 69.31178214056223   W=  50.23792454623216   IN= 5.387284447931072
   A= 2.242954004091412    MA= 110.0024202224187   ADIST= 2.507767045187625
   PER= 3.35922            N= .293409062           ANGMOM= .025582529
   DAN= 2.0564             DDN= 2.39234            L= 119.4249478
   B= 4.1387425            MOID= .99886799         TP= 2016-May-11.0885380907
 
Asteroid physical parameters (km, seconds, rotational period in hours):
   GM= n.a.                RAD= 2.745              ROTPER= 9.93
   H= 13.66                G= .150                 B-V= n.a.
                           ALBEDO= .317            STYP= n.a.

ASTEROID comments: 
1: soln ref.= JPL#48, OCC=0
2: source=ORB
*******************************************************************************


*******************************************************************************
Ephemeris / API_USER Mon Sep  4 11:23:26 2023 Pasadena, USA      / Horizons
*******************************************************************************
Target body name: 3411 Debetencourt (1980 LK)     {source: JPL#48}
Center body name: Solar System Barycenter (0)     {source: DE441}
Center-site name: BODY CENTER
*******************************************************************************
Start time      : A.D. 2023-Aug-12 00:00:00.0000 TDB
Stop  time      : A.D. 2023-Aug-13 00:00:00.0000 TDB
Step-size       : 2880 minutes
*******************************************************************************
Center geodetic : 0.0, 0.0, 0.0                   {E-lon(deg),Lat(deg),Alt(km)}
Center cylindric: 0.0, 0.0, 0.0                   {E-lon(deg),Dxy(km),Dz(km)}
Center radii    : (undefined)
Small perturbers: Yes                             {source: SB441-N16}
Output units    : KM-S
Calendar mode   : Mixed Julian/Gregorian
Output type     : GEOMETRIC cartesian states
Output format   : 2 (position and velocity)
Reference frame : Ecliptic of J2000.0
*******************************************************************************
Initial IAU76/J2000 heliocentric ecliptic osculating elements (au, days, deg.):
  EPOCH=  2457894.5 ! 2017-May-21.00 (TDB)         Residual RMS= .24212        
   EC= .1180644099759344   QR= 1.9781409629952     TP= 2457519.5885380907      
   OM= 69.31178214056223   W=  50.23792454623216   IN= 5.387284447931072       
  Equivalent ICRF heliocentric cartesian coordinates (au, au/d):
   X=-1.122117265787845E+00  Y=-1.915860673364540E+00  Z=-7.980834892662352E-01
  VX= 8.939753954602808E-03 VY=-5.260573466415775E-03 VZ=-3.364217602129087E-03
Asteroid physical parameters (km, seconds, rotational period in hours):        
   GM= n.a.                RAD= 2.745              ROTPER= 9.93                
   H= 13.66                G= .150                 B-V= n.a.                   
                           ALBEDO= .317            STYP= n.a.                  
*******************************************************************************
JDTDB
   X     Y     Z
   VX    VY    VZ
*******************************************************************************
$$SOE
2460168.500000000 = A.D. 2023-Aug-12 00:00:00.0000 TDB 
 X =-3.139550575632417E+08 Y =-4.905995894457521E+07 Z = 2.595484590697661E+07
 VX= 9.905104489527241E-01 VY=-2.096338916444524E+01 VZ=-7.876949822810584E-01
$$EOE
*******************************************************************************
 
TIME

  Barycentric Dynamical Time ("TDB" or T_eph) output was requested. This
continuous coordinate time is equivalent to the relativistic proper time
of a clock at rest in a reference frame co-moving with the solar system
barycenter but outside the system's gravity well. It is the independent
variable in the solar system relativistic equations of motion.

  TDB runs at a uniform rate of one SI second per second and is independent
of irregularities in Earth's rotation.
 
CALENDAR SYSTEM

  Mixed calendar mode was active such that calendar dates after AD 1582-Oct-15
(if any) are in the modern Gregorian system. Dates prior to 1582-Oct-5 (if any)
are in the Julian calendar system, which is automatically extended for dates
prior to its adoption on 45-Jan-1 BC.  The Julian calendar is useful for
matching historical dates. The Gregorian calendar more accurately corresponds
to the Earth's orbital motion and seasons. A "Gregorian-only" calendar mode is
available if such physical events are the primary interest.

REFERENCE FRAME AND COORDINATES

  Ecliptic at the standard reference epoch

    Reference epoch: J2000.0
    X-Y plane: adopted Earth orbital plane at the reference epoch
               Note: IAU76 obliquity of 84381.448 arcseconds wrt ICRF X-Y plane
    X-axis   : ICRF
    Z-axis   : perpendicular to the X-Y plane in the directional (+ or -) sense
               of Earth's north pole at the reference epoch.

  Symbol meaning:

    JDTDB    Julian Day Number, Barycentric Dynamical Time
      X      X-component of position vector (km)
      Y      Y-component of position vector (km)
      Z      Z-component of position vector (km)
      VX     X-component of velocity vector (km/sec)                           
      VY     Y-component of velocity vector (km/sec)                           
      VZ     Z-component of velocity vector (km/sec)                           

ABERRATIONS AND CORRECTIONS

 Geometric state vectors have NO corrections or aberrations applied.

Computations by ...

    Solar System Dynamics Group, Horizons On-Line Ephemeris System
    4800 Oak Grove Drive, Jet Propulsion Laboratory
    Pasadena, CA  91109   USA

    General site: https://ssd.jpl.nasa.gov/
    Mailing list: https://ssd.jpl.nasa.gov/email_list.html
    System news : https://ssd.jpl.nasa.gov/horizons/news.html
    User Guide  : https://ssd.jpl.nasa.gov/horizons/manual.html
    Connect     : browser        https://ssd.jpl.nasa.gov/horizons/app.html#/x
                  API            https://ssd-api.jpl.nasa.gov/doc/horizons.html
                  command-line   telnet ssd.jpl.nasa.gov 6775
                  e-mail/batch   https://ssd.jpl.nasa.gov/ftp/ssd/hrzn_batch.txt
                  scripts        https://ssd.jpl.nasa.gov/ftp/ssd/SCRIPTS
    Author      : Jon.D.Giorgini@jpl.nasa.gov
*******************************************************************************
